OBJECT_NAME,OBJECT_ID,EPOCH,MEAN_MOTION,ECCENTRICITY,INCLINATION,RA_OF_ASC_NODE,ARG_OF_PERICENTER,MEAN_ANOMALY,EPHEMERIS_TYPE,CLASSIFICATION_TYPE,NORAD_CAT_ID,ELEMENT_SET_NO,REV_AT_EPOCH,BSTAR,MEAN_MOTION_DOT,MEAN_MOTION_DDOT
HAWK-5A,2022-057AB,2026-07-22T16:46:07.559040,15.52520606,.00029245,97.6635,4.8796,300.9143,59.1822,0,U,52757,999,23185,.32107618E-3,.19598E-3,0
HAWK-6B,2023-011A,2026-07-22T22:02:51.099072,15.23204189,.00046163,40.4980,143.6134,278.6955,81.3331,0,U,55324,999,19329,.20005098E-3,.464E-4,0
HAWK-6C,2023-011C,2026-07-22T22:01:56.469216,15.23203189,.00050513,40.4972,140.4524,274.3698,85.6535,0,U,55326,999,19330,.18383753E-3,.4248E-4,0
HAWK-6A,2023-011D,2026-07-22T22:01:59.621088,15.23203972,.00047941,40.4984,142.0800,271.2225,88.8035,0,U,55327,999,19330,.18648024E-3,.4311E-4,0
HAWK-7A,2023-054P,2026-07-22T22:37:37.094016,15.27691083,.0000949,97.2652,90.3706,268.7970,91.3161,0,U,56191,999,18248,.21091971E-3,.5635E-4,0
HAWK-7B,2023-054R,2026-07-22T17:54:33.353568,15.27690228,.00004923,97.2681,88.4552,355.1167,5.0068,0,U,56193,999,18245,.20297445E-3,.542E-4,0
HAWK-7C,2023-054Y,2026-07-22T13:11:24.620928,15.27686732,.000031,97.2655,89.0215,267.9693,92.1512,0,U,56200,999,18242,.19996991E-3,.5338E-4,0
